ONEWEB-0258             
1 48976U 21060K   25342.50397495  .00000120  00000+0  27935-3 0  9992
2 48976  87.9038 266.7553 0001649  71.5226 288.6084 13.16595452214507
ONEWEB-0259             
1 48977U 21060L   25342.49764006  .00000109  00000+0  25077-3 0  9999
2 48977  87.9045 266.7504 0001838  69.4634 290.6694 13.16595211214537
ONEWEB-0260             
1 48978U 21060M   25342.33694593  .00000120  00000+0  27949-3 0  9999
2 48978  87.9033 266.7968 0001927  86.8493 273.2859 13.16594284214498
ONEWEB-0261             
1 48979U 21060N   25342.53484309  .00000073  00000+0  15722-3 0  9997
2 48979  87.9032 266.7593 0002146  72.4136 287.7229 13.16592705214577
ONEWEB-0262             
1 48980U 21060P   25342.28706519  .00000085  00000+0  18847-3 0  9995
2 48980  87.9045 266.7818 0001770  64.4645 295.6669 13.16595046214501
ONEWEB-0263             
1 48981U 21060Q   25342.54672116  .00000049  00000+0  94176-4 0  9990
2 48981  87.9038 266.7447 0002108  68.9478 291.1878 13.16595414214503
ONEWEB-0264             
1 48982U 21060R   25342.50792062 -.00000264  00000+0 -72349-3 0  9998
2 48982  87.9036 266.7561 0002000  77.8781 282.2574 13.16593861214504
ONEWEB-0266             
1 48984U 21060T   25342.30131757  .00000014  00000+0  24448-5 0  9996
2 48984  87.9045 266.7828 0001619  70.5216 289.6090 13.16595305214464
